{"type":"FeatureCollection","features":[{"type":"Feature","id":47,"geometry":{"type":"MultiPolygon","coordinates":[[[[23.443034015819013,61.973264384653874],[23.44294046512044,61.973482348859356],[23.442851632419188,61.973689318807608],[23.442850796459432,61.973691247246663],[23.441970214102419,61.973724409396688],[23.441225261586041,61.973794975225964],[23.439068987039814,61.973931550759424],[23.438477431599573,61.973969016551081],[23.438243237302238,61.973983845672265],[23.437800762185791,61.973988319187626],[23.43747201927648,61.974029152736257],[23.435150516991847,61.974176698143545],[23.431101003989696,61.974445380195583],[23.429016180921142,61.974576740581995],[23.427887127567175,61.974585507274703],[23.426820582442069,61.974616078504596],[23.426057323684063,61.974642513508854],[23.42544511802204,61.974647144952968],[23.422634556652408,61.974734997883957],[23.421551038050801,61.974754672461259],[23.420667032289625,61.97481287125126],[23.420550505138834,61.974824059960021],[23.420066680626444,61.97489560024853],[23.419228251109232,61.975063458411917],[23.416767603989875,61.975597729346497],[23.415572645299033,61.975858278905264],[23.413868450381482,61.976221641003512],[23.413046254768478,61.976334789467479],[23.411641921660504,61.976472374250939],[23.410297514433307,61.976568020959682],[23.408466350451747,61.976686695630399],[23.407898977713462,61.976737207331716],[23.40721764172855,61.976763878009599],[23.40608143696047,61.976745591142731],[23.405947132189485,61.976569924078532],[23.401774748050542,61.970945350814645],[23.398311050678519,61.971512657228288],[23.397676277383667,61.966124961619315],[23.394705935832896,61.964943768304273],[23.394672694140144,61.964953169734073],[23.392597651903973,61.965540599878956],[23.392448551360307,61.965791329011367],[23.392978731676632,61.96832638048199],[23.392924510151797,61.968326344409959],[23.391134304618074,61.968325127580933],[23.391066750040331,61.968026674472426],[23.389377912629758,61.968024612760139],[23.387707894139112,61.965818826224357],[23.386886045715485,61.964746688441878],[23.385222883448765,61.964228973759255],[23.382023488079088,61.963247446261171],[23.378642189013245,61.965709406992673],[23.376566893950994,61.967215392054641],[23.372877473645595,61.966333488653667],[23.374579433395681,61.964770540262165],[23.372260716184044,61.964242891767135],[23.372210535788117,61.964230758913295],[23.372206587519077,61.964235867186076],[23.37219426019411,61.964252841830735],[23.372182608410483,61.964269915150254],[23.372107985056612,61.964390473886269],[23.372102512337605,61.964398929980092],[23.372029449230951,61.964500900376549],[23.372016204047455,61.964517725015341],[23.371916597714765,61.964634192608138],[23.371902726829589,61.964649374163287],[23.371661558572917,61.96489329988497],[23.371657437699511,61.964897289247787],[23.371640706635713,61.964913401935895],[23.371554856390404,61.964993476160231],[23.371498357007763,61.965040255100199],[23.371478254606565,61.965055497103982],[23.371457434432344,61.965070513499761],[23.371413548797623,61.965099840082907],[23.371409955951993,61.965102117906554],[23.371217870961811,61.965213551282631],[23.371194809583439,61.965227825600465],[23.371172700572824,61.965242439543488],[23.37116451666077,61.96524816410723],[23.371144045027833,61.965263297484988],[23.371124423290198,61.965278668935234],[23.370995665972988,61.965388643318448],[23.370976858062871,61.965404233902554],[23.370936986292232,61.965434798442466],[23.370916110142822,61.965449157262],[23.370735571384539,61.965564767558455],[23.370725459288554,61.965572094839111],[23.37070541217798,61.965587347186961],[23.370668163656124,61.965618645803069],[23.37063440153122,61.965650809143717],[23.370618692851568,61.965667146374841],[23.370603728407058,61.965683647004695],[23.370596540117464,61.965691914051895],[23.370582601127069,61.965708621437869],[23.370569224573288,61.965725415538479],[23.370480190383322,61.965843769489034],[23.370298236014971,61.966063372002452],[23.370288904228822,61.966076174747286],[23.370276949327266,61.966093212987211],[23.370177258737272,61.966247682058878],[23.370165055223122,61.966265846062967],[23.370153270405325,61.966282897764003],[23.370088947753594,61.966367313007197],[23.370029108480058,61.96643329784596],[23.370015954639868,61.966446449173333],[23.369999276807203,61.966462581068555],[23.36994634865485,61.966510271379143],[23.369927907374446,61.966525979345469],[23.369811606762433,61.96661863123736],[23.369803305280442,61.966625017648198],[23.369515100793016,61.966836336780979],[23.369502602105264,61.966845101852087],[23.369197515504361,61.967051122553357],[23.369182173022804,61.967061160634266],[23.369093800547823,61.967119643894144],[23.369031349055874,61.967164710340953],[23.368993244769761,61.967195788299662],[23.368975638826225,61.967211688924849],[23.368959035084021,61.967227831651321],[23.368944394689322,61.967243199361675],[23.368929896918683,61.967259775049484],[23.368916387650408,61.96727654754487],[23.368892102116934,61.967310551015693],[23.36888117785082,61.967327742142679],[23.368861474583223,61.967362387648663],[23.368775106276139,61.967555463548507],[23.368767080499854,61.96757140105629],[23.368757773770543,61.96758879658401],[23.368737880914139,61.96762342809204],[23.368727558059089,61.967640697973671],[23.368554711951724,61.967897150577819],[23.36854689904888,61.967908249853849],[23.368491585105065,61.967994070289919],[23.368482014806144,61.968011431894055],[23.368473518768237,61.968028911690176],[23.368466494573742,61.968046538134985],[23.368460963391701,61.968064293813548],[23.368456950656505,61.968082125476286],[23.368454495505127,61.968100025168589],[23.368453638137613,61.968114767722454],[23.368454003214648,61.968132714816704],[23.368455899544674,61.968150630392365],[23.368459292261264,61.968168486569922],[23.368464239535516,61.968186275896251],[23.368469995842709,61.968204005673876],[23.368505253977723,61.968292142334533],[23.3685090205169,61.968300922805504],[23.368519596211673,61.968327892173001],[23.36853667068047,61.96837148755052],[23.368542677704411,61.968389196973789],[23.368552304873489,61.968424777553146],[23.368555216484772,61.968442665974742],[23.36855674910451,61.968460589930714],[23.368556847760164,61.968478529998329],[23.368555497680223,61.968496449841354],[23.36855341425834,61.968510584918683],[23.368549552717447,61.968528429556699],[23.368544268932443,61.968546191761547],[23.368537603102112,61.968563854619639],[23.368529540455118,61.968581381794458],[23.368520120124135,61.968598765330945],[23.368510060079497,61.968616069092931],[23.368442712614002,61.96871891659088],[23.368432108644598,61.968734372718551],[23.368420469874003,61.968751464101551],[23.368280014270884,61.968975061402574],[23.36827423757493,61.968985252782389],[23.368215250086493,61.969089237276961],[23.368181481261935,61.969140649479975],[23.368168944522676,61.969157582367757],[23.368141774311642,61.969191096290444],[23.368111597044095,61.969224045632927],[23.368101328958392,61.969234271346821],[23.368084333490579,61.969250322784596],[23.368066575711595,61.96926620134478],[23.36784124764986,61.969453482618206],[23.367827477984299,61.969466815243031],[23.367777755040052,61.969515416172086],[23.367763609715681,61.969532063967662],[23.367751616056751,61.969549083039801],[23.367742677974622,61.969564654951149],[23.367732974551178,61.969582004020758],[23.367704600175692,61.969634124553714],[23.367681219836381,61.969686799160982],[23.367678905935652,61.969693082756258],[23.367655777692974,61.969764007031486],[23.367649622872761,61.969781701309302],[23.367635119010366,61.969816915170476],[23.367626206380422,61.969834356983569],[23.367622494198823,61.969840837356784],[23.367611626439281,61.969858020913406],[23.367599463379378,61.96987501753491],[23.367586063189108,61.969891819768428],[23.367571823470634,61.969908456072858],[23.367525428966065,61.969957638979182],[23.367426569481534,61.970056788256819],[23.367398126699737,61.970090070790697],[23.36738562505759,61.970107022520402],[23.367374399662925,61.970124160683106],[23.367364508690155,61.970141477826594],[23.367356104423404,61.970158977967614],[23.367349287375102,61.970176618823636],[23.367346655074876,61.970184934001196],[23.36734220462446,61.970202745114619],[23.367339388003671,61.970220626279108],[23.367338244352727,61.970238569540243],[23.367338667996609,61.970256500217253],[23.367347706892314,61.970346084500434],[23.367348513603755,61.970352459381985],[23.367354762498199,61.970390745822137],[23.367354951690054,61.970391883137573],[23.367366021225301,61.970459764143776],[23.367371026360598,61.970477546050134],[23.36737734084755,61.9704952366748],[23.367384987990878,61.970512800685263],[23.367393890584101,61.970530245031789],[23.367404726677915,61.970548450320948],[23.367416423742721,61.970565519029982],[23.367429522313195,61.970582364085573],[23.367443929347193,61.970598965059914],[23.367459528499825,61.970615336857698],[23.367476226728364,61.970631459051191],[23.367493947891919,61.970647329631959],[23.367532382886324,61.970678313945719],[23.367542258291316,61.970685664899278],[23.367563217628529,61.970700641316874],[23.367597222829485,61.970723124185426],[23.367510531676668,61.970735135793582],[23.366232237504175,61.970912201296102],[23.365580340523227,61.97100383968349],[23.365418261025429,61.971026406210903],[23.36541442405878,61.971034249224488],[23.365382470199712,61.9710859154495],[23.36537255873569,61.971103231935025],[23.365364643709171,61.971120780836543],[23.36535943371846,61.971138544905941],[23.365358138699484,61.971156466204128],[23.365359639758189,61.971166786624472],[23.365365877061905,61.971184475322943],[23.365376660381571,61.971201672883694],[23.365391752040814,61.971218130392316],[23.365411524753949,61.971233444293084],[23.365436192719212,61.971247099006156],[23.365444314141914,61.971250737250351],[23.365474359659938,61.971261729998211],[23.365507634338488,61.971270462412313],[23.365542633632565,61.971277541834574],[23.365614224854557,61.971289873436874],[23.363821307532799,61.971914635234917],[23.362967807936784,61.971609001107097],[23.362767397355,61.971537234195139],[23.361826479110082,61.971232717035797],[23.360908152039283,61.97093282500569],[23.361431189766268,61.970144890542713],[23.36168269420498,61.969788775474385],[23.361784148293545,61.969637278844061],[23.361827580464332,61.969509574173884],[23.361926306309872,61.969197439263972],[23.36194952631185,61.968872534795977],[23.362030912718922,61.968569674485401],[23.362300056241548,61.967977205918309],[23.362336672305744,61.967683228162009],[23.362158618085271,61.967222250320333],[23.362252800203276,61.966792790197204],[23.362277882764925,61.966570878045488],[23.362443426505063,61.965741217894589],[23.362574480560291,61.96507908522878],[23.362758779151761,61.964317770163319],[23.362897404108455,61.963783889397916],[23.363065259289364,61.963453539379799],[23.363120369004548,61.963243743471345],[23.363216326598977,61.96315301321453],[23.363260327644308,61.962542223115364],[23.363330846304152,61.96224474606197],[23.363290191444072,61.961896101231943],[23.363198949145549,61.96130172591927],[23.363281955552125,61.961012208447329],[23.363720819629311,61.960131019239924],[23.363733131401851,61.959882204956294],[23.36343335396101,61.959402628260079],[23.36336101225826,61.95915012241727],[23.363303538004672,61.958193879823376],[23.363358904394815,61.957919826506881],[23.36355113417623,61.957462894865131],[23.363727168611803,61.957198741324973],[23.36456918643561,61.956418306781885],[23.365122281216546,61.95588690192313],[23.365225310190372,61.955647411286925],[23.365253660108621,61.955227706285648],[23.365174833124051,61.954713363398383],[23.365314055504442,61.954158144661363],[23.36552462204353,61.953314762312914],[23.365679349022244,61.952754389884049],[23.367729901889135,61.953390726167093],[23.371567171525058,61.954572036246596],[23.374454345638554,61.955448805560728],[23.378601106174202,61.952436182803567],[23.382353198654421,61.953580230775039],[23.383907604006001,61.952458867913514],[23.385724446097068,61.95112850258257],[23.385537913344411,61.949337872949769],[23.38535662062818,61.947526180496851],[23.386394252286212,61.946773607417974],[23.387304787896994,61.94689173964813],[23.387416063236369,61.946906099800827],[23.3877925000183,61.946344572849817],[23.3877414900982,61.946292873330016],[23.385502888212223,61.944308736342592],[23.384692346535971,61.946518562679429],[23.382975009061788,61.946079098325235],[23.379804269646222,61.945105341899129],[23.37663254208092,61.94412965820618],[23.37343104726995,61.943145222907198],[23.370240705946788,61.942171670491064],[23.369121170884561,61.942975769687401],[23.367015035842776,61.944510975370825],[23.365067963370983,61.94594839826749],[23.364639706862715,61.945571005020462],[23.36439367011122,61.945271817768692],[23.364357860580895,61.945079633985877],[23.364412256922975,61.944765815536954],[23.364571587124221,61.944500555943691],[23.364792558414134,61.944291716295211],[23.365342327469634,61.943905910492091],[23.366071383355422,61.943404314866896],[23.366252939836187,61.943239249499904],[23.36647460642644,61.942923357871315],[23.366574840028886,61.942677691193452],[23.366621687806404,61.942482100289268],[23.366607100904965,61.942211169491408],[23.366497629151802,61.941903143991354],[23.366493428843306,61.941647225580226],[23.366305962592595,61.941103881064251],[23.366201932421262,61.940697252507157],[23.366079196313521,61.939811127549675],[23.365864822026758,61.939279248585706],[23.365787080004861,61.938781783540001],[23.365457570578979,61.937838424716531],[23.365374693990518,61.937373454469736],[23.365231384188931,61.937110554776709],[23.365196818382088,61.93666105027016],[23.365370381347123,61.936000443846694],[23.365562741154587,61.935301528927717],[23.36589232382099,61.934947662094437],[23.367302087668314,61.933858609780309],[23.367738981202766,61.93356787284533],[23.36865597380358,61.933117546447647],[23.370050503053367,61.932537560728697],[23.371288513955957,61.932053969104189],[23.372101333501323,61.931727030021023],[23.372910946317269,61.931393055203351],[23.373999555475592,61.930932166399636],[23.374477709897992,61.930731231920845],[23.374924315720342,61.930476605017468],[23.376181038443367,61.929665289120194],[23.376181891891726,61.929665167808622],[23.376185722400848,61.929662294088956],[23.376888156506606,61.929134193337916],[23.37735617501022,61.928775607927676],[23.377544870669489,61.928568175208632],[23.377985708469687,61.928250381889676],[23.378105479513945,61.928024149388513],[23.378193210137063,61.927415471839225],[23.378385693146182,61.927124301114986],[23.378715933904829,61.92682237710504],[23.379129942272204,61.926509904724391],[23.379380425774109,61.926149093648675],[23.379647934643181,61.925675884464482],[23.379865418514157,61.925455457023119],[23.380345072848588,61.925121154631647],[23.380610199267913,61.9248725122184],[23.380700376120974,61.924406579786982],[23.3806906078851,61.9241583355535],[23.38048213805034,61.923706375460966],[23.380487084440681,61.923470740143642],[23.380644901163329,61.923177756376063],[23.380968903549864,61.922728597045058],[23.381092433773592,61.922557352140608],[23.381117383729876,61.922522780652706],[23.381419050931026,61.92208325084254],[23.381649284063851,61.921574378871888],[23.381906556206836,61.921195059616181],[23.382265778919788,61.92075031097],[23.38249656367265,61.920486285247271],[23.383126581411222,61.920045599441778],[23.383823807180974,61.919579367227087],[23.38453309348931,61.919028533893943],[23.384798802012195,61.918734877059016],[23.385082333453671,61.91837717294046],[23.385456678407188,61.917794626948528],[23.385667784564497,61.917286406643491],[23.385215368859907,61.916893826669401],[23.384320309427565,61.916255535774937],[23.383962803411389,61.915957630812805],[23.383425997801321,61.915436212600397],[23.382855240722002,61.91480428874646],[23.382503656641386,61.914502661830227],[23.382176211419928,61.914206171075143],[23.382092468366288,61.914083843655959],[23.381745544033535,61.913652272870046],[23.381702863038214,61.913599171227204],[23.381583250169204,61.913402937034313],[23.381530172388221,61.913315771919073],[23.381427933868562,61.913147808368826],[23.381127967818294,61.912844308962967],[23.380434666600273,61.912298009295391],[23.380229570186359,61.911964741813996],[23.379944619305274,61.911527660948053],[23.379901935313281,61.911464008169908],[23.37983693863703,61.911366508377697],[23.37967958582297,61.911131363940932],[23.379427861250988,61.910823288485624],[23.378956601478659,61.910337634376376],[23.378856703238505,61.910187928087041],[23.378856671606197,61.910187873334074],[23.378799193359541,61.910101768291689],[23.378947951355556,61.909448595516267],[23.37904116740345,61.90945222687175],[23.390647441200322,61.909903510599122],[23.391745027237572,61.904064616536182],[23.391744458453633,61.904064592626156],[23.38933520633319,61.903952849092768],[23.38933523484387,61.903952768961531],[23.390727402303948,61.899294703137272],[23.396920353840883,61.890353949439785],[23.402283834372096,61.882750382639493],[23.412113510014137,61.883154830495748],[23.41211352059814,61.883154902664266],[23.412408895558073,61.88710801372401],[23.412408904044131,61.887108103810782],[23.412807521311073,61.890523150119925],[23.413042507241435,61.892465076954274],[23.421375047453068,61.893364492647692],[23.421375517979808,61.893364540840409],[23.421375573898306,61.893364551282311],[23.4213760613187,61.893364617887677],[23.421762637167578,61.898973708739156],[23.425412128822551,61.900826554720453],[23.433328321937879,61.904899127032202],[23.445887544110036,61.904991287219083],[23.44588763909195,61.904991289673603],[23.446223771046743,61.904995626226572],[23.446221143194727,61.905005290519725],[23.446219815433075,61.905015572518224],[23.446220056687419,61.905033506481381],[23.446223183054542,61.905051371213432],[23.44622818564665,61.905069158617529],[23.446234611674438,61.90508683003452],[23.446236658688612,61.905091843382664],[23.446259861019588,61.905144536672701],[23.446266979280029,61.905162154083598],[23.446272026093734,61.905176608699314],[23.446286000927589,61.905230007116032],[23.446290064425057,61.905247842141712],[23.446309712892781,61.90532079762739],[23.446312433452846,61.905328542248938],[23.446319474755732,61.905346166653331],[23.446328000662024,61.905363640704394],[23.4463386906267,61.905380856149357],[23.446349812270327,61.905395503670576],[23.446377230311384,61.905428967278205],[23.446389374216547,61.905445968668268],[23.44639890988574,61.905463936093007],[23.446405201029371,61.905481621985579],[23.446409034583024,61.905499469036812],[23.446410744934596,61.905517387037222],[23.446410749046876,61.905527029474491],[23.446410628428488,61.90554496307066],[23.446411860741758,61.905562895678422],[23.446413735916739,61.905573161585004],[23.446419545925831,61.905590888962678],[23.446428613229276,61.905608296116363],[23.446434419925787,61.905616866338384],[23.446448587473554,61.905633506636065],[23.446466568688098,61.905649301902983],[23.446475569678324,61.905655797936447],[23.446498685744654,61.905670036439929],[23.446523816255958,61.905683500244173],[23.446528510091426,61.905685904046223],[23.446553440253581,61.905699452531422],[23.446575111340856,61.905714156921469],[23.446577954694447,61.905716908309827],[23.446589773792699,61.905733919258289],[23.446596815341316,61.905751543649458],[23.446599329124638,61.905759264947982],[23.446604198019045,61.905777057863105],[23.446607017599916,61.905794941612399],[23.446607379024428,61.905802984727281],[23.446606135615561,61.905820907284912],[23.446601931806654,61.905838726397633],[23.446595123577691,61.90585600194607],[23.446586331597484,61.905873459885719],[23.446577201824454,61.905890873152295],[23.446568150690926,61.905910561991128],[23.446562490322645,61.905928289552669],[23.44656134290565,61.905946205604074],[23.446565397278874,61.905964121256901],[23.446573190152446,61.905981675196585],[23.446575171925865,61.90598544673832],[23.446585979340064,61.906002638231996],[23.446601378298414,61.906019013774866],[23.446605000825045,61.906021947046838],[23.446625856857779,61.90603694488729],[23.446645155946722,61.906052387760809],[23.446656544725041,61.906067527412453],[23.446665264104634,61.906084979473746],[23.446670229141791,61.906095055613278],[23.4466788894639,61.906112524120196],[23.446686219222517,61.906130128990775],[23.446695772758556,61.906167138875027],[23.446808191940743,61.906158774378973],[23.448057887985243,61.906065784856565],[23.448076467745985,61.904810174846681],[23.448077377997421,61.904749163265748],[23.447902129702765,61.9046848062154],[23.447749323328807,61.904627534673359],[23.447577713615228,61.90455597426849],[23.447481897975983,61.904510994001988],[23.447419853492153,61.904471352221201],[23.44712686410141,61.904256514021071],[23.44695138306653,61.904115945599649],[23.446809519945361,61.903991719935433],[23.446717123921729,61.903895174012078],[23.446598213698525,61.903738040081706],[23.44650387810211,61.903619984516062],[23.4463422827532,61.90343504900364],[23.446468623762165,61.903440425348279],[23.44729573138337,61.903475345686907],[23.45108611311251,61.90364209815651],[23.458671372091917,61.903975798425606],[23.459361751523502,61.900479019780803],[23.458382002006637,61.900424900215214],[23.455525007888657,61.900270792918732],[23.455525044525356,61.900270641096228],[23.455526067069297,61.900270694410814],[23.455597415858797,61.899965238430006],[23.457753804372693,61.890861871864388],[23.458093804813799,61.890773489592867],[23.46257090364114,61.889609560761102],[23.462700386388534,61.889575895851792],[23.465655436287484,61.888129804849001],[23.467836575266372,61.887062312465304],[23.475918323510907,61.885473801189072],[23.476940583891068,61.885136449012819],[23.478065726521198,61.884875978243286],[23.480848195003095,61.884328745255694],[23.482294027560318,61.884071516815617],[23.484135524078258,61.883705632794317],[23.486505646271997,61.882956903727106],[23.490280690999089,61.882667133721618],[23.490890871154992,61.882619125689139],[23.496977969690242,61.882140060181186],[23.496816896933066,61.882946292820705],[23.500609538228922,61.883115085960512],[23.504426598779556,61.883283073652308],[23.507528726098993,61.883418532291422],[23.507811820653455,61.883430891150013],[23.508591270039098,61.883463953062289],[23.508116232524994,61.88548778569136],[23.508116197190404,61.8854879285701],[23.507461914811159,61.88819293875526],[23.507309988019852,61.888816950099383],[23.507202166786488,61.889266629887736],[23.506751440236823,61.8911296168558],[23.506755223439239,61.891130341995535],[23.506720887239453,61.891273695183699],[23.508247411261255,61.891511942209021],[23.508370343660332,61.891531131071389],[23.507797565702344,61.892077023850085],[23.506220038156645,61.892592957789219],[23.506239666610103,61.8945928362985],[23.506259081867849,61.896495120857018],[23.506269441202399,61.897563021344268],[23.506278332260795,61.89953694400559],[23.506278509820529,61.899577268750861],[23.495148842393757,61.908726174841547],[23.49448570006702,61.910707534382738],[23.49438132286469,61.911019332741503],[23.491033408031562,61.912708380178657],[23.490967304938245,61.912743689682564],[23.49075227740639,61.913774785073947],[23.488731282626603,61.915253016512217],[23.487245064852065,61.916344870189604],[23.482697212044272,61.916554759168491],[23.47692084538977,61.921194210303049],[23.475435072865242,61.925386193317003],[23.475435043524676,61.925386282427013],[23.474971708133427,61.926661285279231],[23.480255264839997,61.931832249881225],[23.478421435402552,61.931903441403712],[23.47652319058621,61.931974352307265],[23.474538286824234,61.94152982292097],[23.469116398120683,61.940893289810788],[23.470789627731705,61.938244401785354],[23.470760219411037,61.938235784838731],[23.47072810829555,61.938226128076799],[23.470696369532039,61.938216220255647],[23.470665313224774,61.938205853658857],[23.470635636687454,61.938194605844799],[23.470607566060963,61.938182500585391],[23.470593917903244,61.938175986106806],[23.47056856786223,61.938162620646608],[23.470544800960411,61.938148594855306],[23.470522166725146,61.938134175753866],[23.470500387525174,61.938119455071543],[23.470479361026989,61.938104493087749],[23.470458886704538,61.938089374522541],[23.47043938048504,61.938073966263097],[23.47042274191821,61.938057840753409],[23.470409481365348,61.938041038040531],[23.470407194289454,61.938037555660372],[23.470398182407912,61.938020134016526],[23.470392428984482,61.938002409524913],[23.470389345895438,61.937984519869381],[23.470388250966536,61.93796659133551],[23.470387709611998,61.937948659024926],[23.470387359466276,61.937930722631407],[23.470387209323832,61.937927564634606],[23.470385809084785,61.937909637257555],[23.470383873256843,61.937891723104407],[23.470381708188057,61.93787381205879],[23.47037971531223,61.937855896442549],[23.470378161906105,61.937837974123518],[23.47037756350549,61.937820040349656],[23.470378166297948,61.937802110420371],[23.470380293574632,61.937784192626047],[23.470382619570401,61.937772974626427],[23.470388102540714,61.937755232746355],[23.470395475840174,61.937737638189098],[23.470404509188992,61.937720203021492],[23.470414951220441,61.937702956742093],[23.47042663181276,61.93768588600183],[23.470439379809513,61.937668986411467],[23.470454170929646,61.937650746355878],[23.470468228360303,61.937634069051214],[23.470496845251805,61.937600826159752],[23.470510957616721,61.937584168232505],[23.470524697904136,61.937567428873564],[23.470537632861323,61.93755056102853],[23.470549613457795,61.937533533917581],[23.470560299457475,61.93751632084399],[23.470569161489387,61.937498881275168],[23.470575042620585,61.937481158586145],[23.470577567041495,61.937463268946921],[23.470577636184586,61.937457717265588],[23.470575297801123,61.937439819751944],[23.47057019819718,61.937422049129111],[23.470563328332499,61.937404412835185],[23.470547894429512,61.937369276525914],[23.470540659125696,61.937351666804126],[23.470535961844963,61.937337348199996],[23.470532494246672,61.937319484631651],[23.470530501307874,61.937301569016022],[23.470528814712228,61.937283643283529],[23.470526304179952,61.937265750339733],[23.470521512006123,61.937247960638651],[23.470515889639575,61.937234220384738],[23.470505561997467,61.937216962699019],[23.470491073667954,61.937200389101704],[23.47046970069858,61.937185624900806],[23.470451219617583,61.937179013424199],[23.470414462762804,61.937175240195998],[23.47037740488102,61.937179025596166],[23.470343010965252,61.93718666248143],[23.470310815839149,61.9371962338559],[23.470280924164523,61.937207329041208],[23.470268387519265,61.93721265984373],[23.47024196836513,61.937225560432836],[23.47021739989146,61.937239281289543],[23.470194131909757,61.937253466830242],[23.470171063776199,61.937267738368206],[23.470147263928144,61.93728173952443],[23.470121497182635,61.937294935395308],[23.470106451889084,61.937301343091718],[23.470075263931442,61.937311605221382],[23.470042177400476,61.937320470726306],[23.470008220748234,61.937328612986164],[23.46997416446926,61.937336626876387],[23.469952642776068,61.937341969839018],[23.469919783728628,61.937351011887408],[23.469886365810122,61.937359608258085],[23.469850479898142,61.937365463441807],[23.469812598414482,61.937365974575897],[23.469806422308636,61.937365447736774],[23.469771179796073,61.937358801658348],[23.46973824956989,61.937349806582496],[23.469706094425785,61.937340211332199],[23.469671969877332,61.937332308878723],[23.469646659783901,61.937330491489682],[23.469616102964842,61.937340572010982],[23.469595851949553,61.93735571548627],[23.469579092624926,61.937371838151918],[23.469562521381608,61.937387983612453],[23.469558111717269,61.937391977187808],[23.469538317427411,61.937407294121883],[23.469515323905444,61.937421576457439],[23.469489049143341,61.937434543517845],[23.469459568447636,61.937445873730432],[23.46942760032513,61.937455621468303],[23.469393959784675,61.937463996345251],[23.469358998834558,61.937471088265113],[23.469323322917273,61.937476939715985],[23.469286629179091,61.937481695693492],[23.469249280638852,61.937485185785413],[23.469211445625298,61.937487108779095],[23.469173427557756,61.93748665471518],[23.46913365376458,61.937483073341397],[23.469098093913999,61.937476697521362],[23.469063778549028,61.937468960759404],[23.469029639154133,61.937461021820745],[23.468994702952365,61.93745387118814],[23.468958226122737,61.937448828719845],[23.468944703894707,61.937447996561708],[23.468906827953813,61.937449118651038],[23.468870461715753,61.9374543412153],[23.468836286385113,61.937462225971032],[23.4688033369784,61.937471220512016],[23.468769169711265,61.937481675506596],[23.468737890185732,61.937491899050563],[23.468706803257366,61.937502271308006],[23.468675630543203,61.937512560482254],[23.46864405044866,61.93752257859849],[23.468611677738732,61.937532028214775],[23.468578347099065,61.937540689420629],[23.468543930214604,61.937548352240881],[23.468520046063603,61.937552843588279],[23.468483852578551,61.93755838500261],[23.46844695282369,61.937562776027093],[23.46840957123991,61.937566220115855],[23.46837190148301,61.937568857030179],[23.468334100584187,61.93757097835686],[23.468258417812528,61.937574931343711],[23.468242617614699,61.937575819930593],[23.468204863767035,61.93757819404253],[23.468167199158277,61.937580786102586],[23.468091918025006,61.93758621405297],[23.468054266200134,61.937588860327594],[23.468016556945095,61.937591343366975],[23.467978762584345,61.937593572598985],[23.467943357702193,61.937595261064196],[23.467905377143044,61.937596461072836],[23.467867315173606,61.937596715432313],[23.467829349086788,61.937595480534839],[23.467792444007454,61.937591172620657],[23.467775807738132,61.937587744301005],[23.467744535971242,61.937577605125938],[23.467719604649371,61.937564097088469],[23.46770106202613,61.937548452538138],[23.467687860241014,61.937531651038753],[23.467677903718283,61.937514330748485],[23.467670495780553,61.937496743374354],[23.467665359826597,61.937478971680193],[23.467662277342583,61.937461090934121],[23.467661494716065,61.937453342727459],[23.467660897909973,61.937435408952616],[23.467661274077141,61.937417473189406],[23.467661935497834,61.937399544746825],[23.467662217614428,61.937381597583673],[23.46766100915843,61.937363675069975],[23.467656909466566,61.93734584909356],[23.467649174147574,61.937328289259952],[23.467636985186619,61.93731130706383],[23.467627675891091,61.937302081961285],[23.467607438971509,61.937286906124235],[23.467585404202396,61.937272268245302],[23.467563824452661,61.937257489275105],[23.467544850252981,61.937241950442569],[23.467534167865608,61.937229589857594],[23.467527488929736,61.937211967265164],[23.467526280556235,61.937194044750541],[23.467527800911288,61.937176111392823],[23.467529738597918,61.937158197732003],[23.467529694392059,61.937140269150852],[23.467528544049699,61.937133392151566],[23.467520729679602,61.937115857237757],[23.467507548225942,61.937099047250769],[23.467490284548553,61.937083067054722],[23.467469970736392,61.93706789820596],[23.467446032295854,61.937052240933312],[23.467399993591194,61.937023669409577],[23.46737762028479,61.937009157595611],[23.467356773442908,61.936994145784922],[23.467337386690513,61.936978713150239],[23.467319535056898,61.936962870604177],[23.467303253465744,61.936946646002298],[23.467288416419386,61.936930134972144],[23.467274984846632,61.936913345497608],[23.467262971546219,61.936896331824741],[23.467255847711787,61.936885033059397],[23.467246142993456,61.936867683246774],[23.46723734553413,61.936850239899613],[23.467229071892483,61.936832720134724],[23.467221086616711,61.936815180812182],[23.467212966161814,61.93679765599164],[23.467204478185277,61.936780175654192],[23.467195315314935,61.936762758868852],[23.467184913640253,61.936745498995485],[23.467173270055195,61.93672842291263],[23.467164001130911,61.936716377144585],[23.46714945883971,61.93669979278571],[23.467132882903428,61.936683641479512],[23.467114085599921,61.936668062185817],[23.46709270495052,61.936653216349889],[23.46706741578819,61.936639842767853],[23.46703732654726,61.936628889060756],[23.467012539442322,61.936623049797682],[23.466975825084653,61.936618423033096],[23.466937906577229,61.93661711719826],[23.466899898496219,61.936618235325618],[23.466862191393908,61.936620709097603],[23.466824598081661,61.936623518269506],[23.466793780041648,61.93662562969601],[23.466755898237249,61.936627469920936],[23.466717875570474,61.936628219189963],[23.466679848573492,61.936627521560176],[23.466642303634266,61.936624634677599],[23.466618880245278,61.936621517223074],[23.466583763400092,61.936614621911922],[23.466551041674823,61.936605487614116],[23.466521017994889,61.93659446358361],[23.466493638480518,61.936582015720958],[23.466468993397985,61.936568353027582],[23.466445119067604,61.936552149051458],[23.466426461528449,61.936536519326701],[23.466410765633004,61.936520183835739],[23.46639824817559,61.936503246993574],[23.466388948584815,61.936485862578792],[23.466382794263176,61.936468163521226],[23.466379960861548,61.936450280137741],[23.466380680043056,61.936432353169238],[23.466385086316155,61.936414538834441],[23.466389386955779,61.936404234247071],[23.466399755739811,61.936386977370226],[23.466412934470405,61.936370161068005],[23.466428037668109,61.936353690716935],[23.4664444249944,61.93633749595957],[23.466478256579514,61.936305367215645],[23.466494643852648,61.936289172451836],[23.466508299835667,61.93627416563362],[23.466521049372531,61.936257266414671],[23.466531774157129,61.936240063600422],[23.466540657101294,61.936222624790453],[23.466547806088133,61.936205006671905],[23.466553312056707,61.936187247524465],[23.466557567096199,61.936169420317455],[23.466560968475687,61.936151553222373],[23.466566726370498,61.936115783221588],[23.466569671164955,61.936099225375337],[23.466573109524283,61.936081368215682],[23.466576358754402,61.936063497214363],[23.466579095582073,61.936045604072142],[23.466580539312815,61.936027677732902],[23.466580974153761,61.936009734479079],[23.466579995588752,61.935991808856699],[23.466575128791288,61.935974026040626],[23.466566040499366,61.935956629088061],[23.46655062317636,61.935937721721778],[23.466532496994535,61.935921952880712],[23.466510400443394,61.935907367131286],[23.466484975925251,61.935894016908804],[23.466456867912704,61.935881936729672],[23.466426721547993,61.935870990390157],[23.466395319900737,61.935860838545601],[23.466362960643767,61.93585138100331],[23.46632980004831,61.935842585830038],[23.466295920394082,61.935834401220554],[23.466260956904225,61.935826683015783],[23.466225978979296,61.93581958447875],[23.466190778787638,61.935812758797837],[23.466155470060858,61.935806047141462],[23.466120228760367,61.935799247344988],[23.466085204578363,61.935792219472859],[23.466050677883825,61.93578468316575],[23.4660357517905,61.935781154745634],[23.46600238048207,61.935772533803814],[23.465969893874764,61.935763189715665],[23.465938305804315,61.935753167768041],[23.465907524663333,61.935742600402236],[23.46587750102109,61.935731585197715],[23.465861761193619,61.935725528713405],[23.465832802063762,61.935713884840446],[23.465803986430689,61.935702154783748],[23.465774721379915,61.935690682766143],[23.46574422627193,61.935679951968659],[23.465711675540778,61.935670669072991],[23.46567701943675,61.935663264137688],[23.465651503701345,61.93565944576644],[23.46561406824673,61.935656282818613],[23.465576054570302,61.935655315616984],[23.465538037241114,61.935656028730612],[23.465499942176844,61.93565741380251],[23.465461971569024,61.93565871219807],[23.465423946978678,61.935659487997221],[23.465347804387797,61.9356603632],[23.465309762491959,61.935660958799218],[23.465271773535541,61.935662085933423],[23.465233926734815,61.935663962562955],[23.465196329284396,61.935666816096031],[23.465184794046689,61.935667939658295],[23.465147939710263,61.935672447752559],[23.465111959843394,61.935678299268361],[23.46507708574152,61.935685473188386],[23.465043566679949,61.935693957943485],[23.465012005300043,61.935703984681901],[23.464983151866988,61.935715662537142],[23.464957723441827,61.935728893107644],[23.46493628946449,61.935743700007365],[23.464917621808191,61.935759323811396],[23.464900511038653,61.935775338063728],[23.464883769165933,61.93579146063756],[23.464866379341501,61.935807413801463],[23.464846989685331,61.935822848314686],[23.464839351859304,61.935828034871378],[23.464814950169401,61.93584178603146],[23.464787406943866,61.93585417146793],[23.464757746289269,61.93586540619431],[23.46472705214585,61.93587601229261],[23.464707174679688,61.935882475011724],[23.464675417296885,61.93589237982313],[23.464643730773943,61.935902331378742],[23.464612345730824,61.935912479381834],[23.464582186720612,61.935923404726502],[23.464554354623051,61.935935647905914],[23.464529624945751,61.935949264787212],[23.464508906992563,61.935964143936786],[23.464492947929116,61.935980421370097],[23.464481097725329,61.935997451356407],[23.464472043572652,61.936014876669979],[23.464464385191771,61.936032436685828],[23.464456932868003,61.936050028953204],[23.464448794540676,61.936066956591382],[23.464438161659849,61.936084179597223],[23.464425710126452,61.936101131229449],[23.464411671241297,61.936117790470725],[23.464396959165668,61.93613433356937],[23.46438196597941,61.936150833500605],[23.464374260391871,61.936159406093509],[23.464359977351808,61.936176032099844],[23.464346459442215,61.93619280356701],[23.464333764749362,61.93620971300124],[23.46432195032293,61.936226761868227],[23.464311167256714,61.936243963035835],[23.464301791728534,61.936261362112731],[23.464294076135175,61.936278920651965],[23.464288097581004,61.936296631648197],[23.464284090792074,61.936313620483311],[23.464281751933921,61.936331523828052],[23.464281125570395,61.936349462178953],[23.464281968640712,61.936367393347183],[23.464284092021764,61.936385303488024],[23.464287287573661,61.9364031782683],[23.464291289070445,61.936421010848846],[23.46429573001986,61.936438836745772],[23.464304979464121,61.936474444063414],[23.464309287314016,61.936492266540405],[23.464310064034571,61.93649577314158],[23.46431347190131,61.936513626416037],[23.464316285080795,61.936531509344633],[23.464318732805097,61.936549418829863],[23.464320932282298,61.936567330924021],[23.464324797747651,61.936603150393616],[23.464328163609792,61.936639001959797],[23.464329226992426,61.936650414800177],[23.464331026099217,61.936668325595079],[23.464332995318934,61.936686249745996],[23.464335176832115,61.93670415239167],[23.464337549548986,61.936722050962778],[23.46434018953579,61.936739947413315],[23.46434309782984,61.93675783278367],[23.464346330444279,61.936775717498875],[23.464349852457111,61.93679357370327],[23.464353718844784,61.936811420781389],[23.464355436907979,61.936818824618342],[23.464360052204405,61.936836628030846],[23.464364629472758,61.936854430466227],[23.464373475612,61.936890063358781],[23.464377610329642,61.936907899356108],[23.464381208439846,61.936925757513627],[23.464383695296267,61.936943659014794],[23.464385131057291,61.936961578446379],[23.464385324517966,61.93697951988301],[23.464384202720062,61.936997454492001],[23.464381635655247,61.937015351975042],[23.464381083962817,61.937018141499472],[23.464376562325324,61.93703595282868],[23.464370696719545,61.937053675716797],[23.464364037590183,61.937071333289673],[23.464349678572926,61.937106576768663],[23.464342679191777,61.937124207628024],[23.464336171126529,61.937141878066754],[23.464335117404246,61.937145050087906],[23.464329913189918,61.937162825909688],[23.464325732763108,61.937180654989255],[23.464322197864099,61.937198509637469],[23.46431297618188,61.937252154040131],[23.464311199073496,61.937261741602185],[23.464307302835671,61.937279586968025],[23.464302515912934,61.937297382495004],[23.464296575178736,61.937315094465106],[23.464288764212313,61.937332650557281],[23.464278580961214,61.937349939026092],[23.464273078185418,61.93735776843296],[23.46425924261904,61.9373744778229],[23.464242890566332,61.937390682242324],[23.464224203545154,61.937406296491346],[23.464203299802065,61.937421287661813],[23.464180411685664,61.93743562577675],[23.464155587597688,61.937449222216607],[23.464132756702586,61.937460263856472],[23.464104509468545,61.937472289624878],[23.464075041647021,61.937483654996612],[23.464044842846008,61.937494579231746],[23.464014182765755,61.937505204051611],[23.463983591473305,61.937515893535675],[23.463953160942339,61.937526677005479],[23.46392313978135,61.937537713613629],[23.463912609713987,61.937541846327711],[23.463884416258253,61.937553900394043],[23.463858066070067,61.937566837528529],[23.463834409042413,61.937580895236273],[23.463815538784107,61.937596441824361],[23.46380946530488,61.937603268070269],[23.463799452841773,61.937620560897628],[23.463795862599458,61.937638396143925],[23.46379770050374,61.937656298959396],[23.463802930352763,61.937674064264598],[23.463810778675285,61.937691618269987],[23.463815058431358,61.937699465349496],[23.463825884136487,61.937716673495729],[23.463849342542098,61.937750803719346],[23.463860363640002,61.937767971950962],[23.463869525922252,61.937785379984895],[23.463876006464279,61.937803051610828],[23.46387857222776,61.937819939709492],[23.46387669043666,61.937837845807714],[23.463870976509867,61.937855572578201],[23.463862298657801,61.93787303449141],[23.463851345642308,61.937890213297266],[23.463839248121008,61.937907227905427],[23.463826814498567,61.937924179960554],[23.463814567923066,61.937941163778952],[23.463810734563523,61.937946762550183],[23.463800081618821,61.937963985006917],[23.4637909144307,61.93798138941392],[23.463783366122232,61.93799897919159],[23.463777709160023,61.93801670742301],[23.463774077705214,61.938034568568973],[23.463772410574801,61.938053091243965],[23.463772833943285,61.938071020620463],[23.463775434618007,61.938088925059759],[23.463780395166275,61.938106710403829],[23.463787800994982,61.938124297970688],[23.463798125117179,61.93814155613299],[23.463812668312734,61.938158122915581],[23.463832135252293,61.938173513193313],[23.463857539382573,61.938187375579751],[23.463887195390164,61.93819861538821],[23.463918187103605,61.938209026829],[23.463947984572496,61.938220198368079],[23.46397340015093,61.938232479453028],[23.463995119199829,61.938247199679502],[23.464011541110104,61.938263356405621],[23.464021134445396,61.938280667663584],[23.464016063853542,61.938294483994099],[23.463984550227398,61.938303577211308],[23.463946644386258,61.938304616313879],[23.463908687634362,61.938303128973843],[23.463870803143713,61.938301346934864],[23.463855540087678,61.938300721171423],[23.463817520435835,61.938299942100507],[23.463779463479046,61.93830047404704],[23.463741706003766,61.938302703084453],[23.463704935067859,61.93830728488588],[23.463670334941931,61.938314699189299],[23.463651080794822,61.938320539781415],[23.463622134446538,61.938332170085211],[23.463597311446506,61.938345748496737],[23.46357644373921,61.938360749500212],[23.46355921977786,61.938376733754787],[23.463545645440277,61.93839348574371],[23.463535988701736,61.938410832628939],[23.463532675680099,61.938419679798713],[23.463529139114261,61.938437543379081],[23.463529772567856,61.938455469169831],[23.463534542849999,61.93847324963513],[23.463543222445505,61.938490708190876],[23.463555176172349,61.938507729668267],[23.463570029907014,61.938524250536624],[23.463587566851082,61.938540166376526],[23.463610466107188,61.938557379206713],[23.463632998114694,61.93857183281721],[23.463679851562272,61.938600112034543],[23.463702243250673,61.938614624930835],[23.463722103215304,61.938629917482203],[23.463732937649766,61.938640296335322],[23.463745960325721,61.938657147559326],[23.463754564020515,61.938674604148332],[23.463760120411049,61.93869235088146],[23.463763870477305,61.938710212958952],[23.463766912744337,61.938728092796786],[23.463767774208108,61.938733174163971],[23.463770586192513,61.938751066057726],[23.463771773376443,61.93876898809777],[23.463770097721923,61.938781157304334],[23.463763315434182,61.938798883584255],[23.463759651012985,61.938816698952415],[23.463760979676781,61.938823841177978],[23.463693765410657,61.938808814747851],[23.457675702809432,61.937446675995389],[23.455851837954736,61.937033785782432],[23.451309150918089,61.937070859691048],[23.442708486073798,61.937168696975071],[23.442456024669802,61.939067649818668],[23.447307970790693,61.939210393608164],[23.446578584797916,61.944671724852199],[23.444240407689794,61.944572690541079],[23.445859427377222,61.950036751670375],[23.445985586894189,61.950863413616673],[23.446390162804352,61.953452985020611],[23.45110653363756,61.954647148210199],[23.451072657958864,61.9548551607948],[23.450917910264099,61.956662677176752],[23.450769589250022,61.958478096240796],[23.450621624886253,61.960307336248782],[23.450614008090014,61.960332948476385],[23.450478466635033,61.960788733827627],[23.451143101246778,61.962012223196851],[23.451424035204219,61.962529360461538],[23.452770488250877,61.962859551440786],[23.452543910904271,61.963915395681774],[23.45074779441131,61.964953105141582],[23.450549519761886,61.965067647433337],[23.449502551936945,61.966549176363941],[23.449376138472751,61.967001584014362],[23.449273761519539,61.967367992660272],[23.449053917559574,61.968864154335165],[23.448854805635044,61.970216279344349],[23.448854416636145,61.97021896519454],[23.443905093202066,61.971234828373234],[23.443904933026268,61.971235219634828],[23.443789063448051,61.971505195804802],[23.443034015819013,61.973264384653874]],[[23.40217312057117,61.952620216122014],[23.402174745092029,61.952620195667407],[23.405537584630498,61.952586820226053],[23.406086975594267,61.951535208992865],[23.406994690219609,61.949792800199766],[23.407644264177463,61.948538798803327],[23.407897630179583,61.94804984013647],[23.408800970071372,61.946309546241615],[23.409280477778037,61.945386389042532],[23.409704880474852,61.94456446416018],[23.410185047867067,61.943643002368205],[23.407518196102881,61.942362945447996],[23.406163610242064,61.941717724444402],[23.40392389827641,61.942165916851145],[23.400805259830268,61.942811292396712],[23.393108994983965,61.949804590596706],[23.394693613301566,61.950692048551026],[23.394696075346555,61.95068671209286],[23.394697748832751,61.950682559185751],[23.394732057112968,61.950594337745578],[23.394737416306828,61.950576585814119],[23.394738386894666,61.950573052546801],[23.394746093199299,61.95053736196764],[23.394750151186035,61.950501539904074],[23.39475066548858,61.95046566997538],[23.394745391129184,61.95041191794558],[23.394742081881571,61.950394046852985],[23.394738137387378,61.95037686906457],[23.39473336966693,61.950359067617441],[23.394733318960743,61.950358850611771],[23.394784664167094,61.950362936087373],[23.395527276848387,61.950422056346248],[23.395913757514855,61.949752394273808],[23.396117945886623,61.949409384180122],[23.395492604072267,61.949327716397626],[23.395681955518558,61.948968807612985],[23.395968640705945,61.948409386240129],[23.396067392773571,61.948414981961463],[23.396104579592858,61.948411120678351],[23.396114248276692,61.948410358305004],[23.396152135624604,61.948408483406581],[23.396266202246352,61.948405574197146],[23.396304043086214,61.948403608174019],[23.396339369871658,61.948400309225114],[23.396375458724481,61.948394594855387],[23.396410005788962,61.948387069764635],[23.396443004700661,61.948378111223242],[23.396474513564776,61.948368035283316],[23.396565265272816,61.948335354134443],[23.396584462252417,61.948328550534072],[23.396740219947528,61.948276973569918],[23.396769918369248,61.948265744832334],[23.39679678139867,61.948254450863729],[23.396874694764133,61.948215106958074],[23.396891455766351,61.94820630744956],[23.396945100331692,61.948180850616275],[23.397141680190124,61.948096039910929],[23.397160867432142,61.948087214003451],[23.397213225469898,61.948061175223657],[23.397262295792579,61.948033729361008],[23.397307727548576,61.948004939129746],[23.397328929034277,61.94799003707675],[23.397348859197123,61.947974751275012],[23.397367384883836,61.947959078240558],[23.397384482845947,61.947943053311768],[23.397400000908764,61.947926672506895],[23.39741387778037,61.947909970168709],[23.397417515298464,61.947905176668741],[23.397428996437721,61.947888079132525],[23.397438769812979,61.947870739200923],[23.397454549123196,61.947835646217179],[23.397502163399324,61.947675781121653],[23.397508825530018,61.947658126119336],[23.397511518268981,61.947651798151625],[23.397588609129176,61.947512978076631],[23.397596536119078,61.947495437049362],[23.397603086135682,61.947477761137087],[23.397604057335897,61.947474542402354],[23.397608353265724,61.947456726626051],[23.39761094251719,61.947438821256711],[23.397611874760535,61.947420890500076],[23.397607435835386,61.947367133551879],[23.397604623972928,61.947349239617893],[23.39760212275888,61.94733550560462],[23.397597148954734,61.947299707783444],[23.397596841621446,61.947281771548901],[23.397600206521197,61.94726392242314],[23.39761252319893,61.947247017486212],[23.397627486981779,61.947236301666607],[23.397655831416358,61.947224408271524],[23.397689564202761,61.947216169616368],[23.397725618649503,61.947210409089784],[23.397762772100421,61.947206492597068],[23.397768665630821,61.947206026739785],[23.397806507012994,61.947204042374047],[23.397885878896805,61.947202120225064],[23.397961954750595,61.947200156721102],[23.3980377103919,61.947196540256414],[23.398075368924619,61.947193841094816],[23.398112705134981,61.947190315712696],[23.398149645047031,61.947185944201792],[23.398167392176322,61.947183496893587],[23.398203479258246,61.947177782030849],[23.398238923810542,61.947171205611561],[23.398273693072589,61.947163883604368],[23.398307915969003,61.947156017087174],[23.398336762093908,61.947148926519553],[23.398468591514433,61.947112978411866],[23.398487517858108,61.947107650269302],[23.398591896914393,61.947079089772672],[23.398784233967461,61.947144223449342],[23.39967052250735,61.947444344020077],[23.399429932461306,61.948881552496296],[23.401381791771708,61.949031232303959],[23.40217312057117,61.952620216122014]],[[23.36599768332918,61.969668928285188],[23.367281848442264,61.969657654851979],[23.367546872408834,61.969066453130822],[23.366821658709679,61.968931531012174],[23.366785774121048,61.968924850890787],[23.366666706640558,61.96897772415781],[23.366561187165008,61.969032913839158],[23.366543915618411,61.969041337080832],[23.366522063059026,61.969051670467479],[23.36644821626054,61.969095994913744],[23.366447476601149,61.969096433723145],[23.366145263016794,61.969277801763923],[23.365964373128936,61.969434161033746],[23.365952728589566,61.969444233457473],[23.365917075279256,61.969543970977711],[23.365916923200185,61.96954476678323],[23.365916451633574,61.969552572787769],[23.365923483003602,61.969593090711463],[23.36592389916893,61.969595528106453],[23.36593672591847,61.969669467777742],[23.36599768332918,61.969668928285188]]],[[[23.381369966109116,61.913552005006409],[23.381798530267027,61.914124577458125],[23.382232982630025,61.914557614252125],[23.382594850842835,61.914879435793871],[23.383078314568273,61.915403804737707],[23.383470601748638,61.915845541660751],[23.383648399225951,61.916032195871672],[23.384203543133768,61.91643476106502],[23.385062169524186,61.917048298607249],[23.385236132092871,61.917221576368291],[23.385258684381792,61.917465347837485],[23.384930549050303,61.918052711274804],[23.384363890707469,61.918793839850679],[23.384141509466641,61.91906088392836],[23.383409576416994,61.919593919566317],[23.382650174824636,61.92015185050213],[23.382148163567976,61.920496831511777],[23.381605015048766,61.92116592065603],[23.381384070214523,61.921521454594043],[23.381122738716133,61.922086528644236],[23.380714007083359,61.922684749981173],[23.380274014399298,61.92328277699324],[23.380160881994403,61.923491571598134],[23.380222728290274,61.92381199214136],[23.380407961571635,61.924165826967027],[23.380418831484604,61.924478813297142],[23.380292348781964,61.924787431321981],[23.380098855507047,61.925045398764745],[23.37973125330652,61.925324828373242],[23.379393368962578,61.925553078134406],[23.379285549219592,61.925758264600262],[23.379064124566451,61.926197152620773],[23.378817830987057,61.926511459541828],[23.378428354840704,61.926759926532398],[23.378035886992382,61.927196575883507],[23.377878297318798,61.927498828666685],[23.377853909088874,61.927614348590723],[23.377811465361486,61.928001429229035],[23.377661153398982,61.92823385815462],[23.377349388200471,61.928463348490631],[23.377075442233991,61.928711411921419],[23.376732932630436,61.928987828864969],[23.375628883877837,61.929740164666278],[23.375424738918447,61.929886509986687],[23.375278532071889,61.929991325940541],[23.375031593196788,61.930168356405801],[23.374525245124502,61.930477001319296],[23.374093461952011,61.93070343084969],[23.372838417626607,61.93123418157537],[23.371893027185497,61.931619044681774],[23.37109633910239,61.931904098438253],[23.370593814448664,61.93212264018824],[23.369953409918029,61.932380239151563],[23.368513464941358,61.932983747841369],[23.367605489847165,61.933405724458012],[23.367189056392817,61.933671002416446],[23.366715036724351,61.93404084741934],[23.365716329643163,61.934815600432145],[23.365436556211126,61.935050099253097],[23.365290482984506,61.935111278508622],[23.365291667695761,61.935231022309502],[23.365184396858428,61.935623669123665],[23.364909330224073,61.93659759555851],[23.364892755732452,61.936904891130013],[23.365037804316998,61.937329967150532],[23.36512639440566,61.937750882774615],[23.365257678521719,61.938122725826361],[23.36544439034844,61.93891068094031],[23.365606577063129,61.9395830564684],[23.365721983562924,61.939974942316219],[23.365886561420599,61.940739871928997],[23.366073344975604,61.9413987147732],[23.366181737352754,61.941878682518073],[23.366300405409778,61.942318166496868],[23.366282483056438,61.942597899909465],[23.366141345103763,61.942907218038783],[23.365958777189217,61.943187583383107],[23.365731576260487,61.943377405959239],[23.365128296698838,61.943802249373711],[23.36459766303917,61.944173147442655],[23.364379480661224,61.944367690638089],[23.364164532247653,61.944651233860306],[23.364050577783015,61.94500022593283],[23.364082529392835,61.945264219906896],[23.36431059651402,61.945557262530272],[23.364496112525963,61.945764139325604],[23.365120951201629,61.946280195067651],[23.365846374047894,61.946849399458706],[23.366059241428928,61.947123533641069],[23.366087708809143,61.947354111932924],[23.366031215978989,61.947654700835095],[23.365875087634024,61.948210632804361],[23.365652917048241,61.948919303219697],[23.365632182431973,61.949152986175726],[23.365626486389129,61.949622797266187],[23.365640698605041,61.950342174365467],[23.36567662368433,61.951094288117758],[23.365681754999159,61.951520107295281],[23.365411035611171,61.952578293352232],[23.365231460318572,61.953268955314265],[23.365024190531258,61.95408570683167],[23.364885473564438,61.954621734057191],[23.364888287174683,61.955036141889202],[23.364957505403542,61.95538270956088],[23.364873463456227,61.955757331618017],[23.36470836290173,61.955954832781011],[23.364195871404416,61.956422495922986],[23.363441834268318,61.95715102601006],[23.363287037549593,61.95733799582468],[23.363203510805732,61.957554598984053],[23.363065311130974,61.957905970144694],[23.36299463898332,61.95817469438083],[23.363023161596033,61.958775034418174],[23.363056436672171,61.959273024072139],[23.363169365436772,61.959484939530796],[23.363393381205327,61.95983711506787],[23.363410059224307,61.960075704186963],[23.363320522528682,61.960299589796158],[23.362946055460942,61.961063817872862],[23.36287506485446,61.961311109322871],[23.362958417010674,61.961854384654337],[23.36301135069013,61.962307564214584],[23.362837871628241,61.962885530060184],[23.362812333579953,61.963025318351214],[23.362691818262824,61.963465586144473],[23.362552836322529,61.963941744461849],[23.362392288430083,61.96447785878506],[23.362302024979357,61.964942596544006],[23.362249716191187,61.965164373679372],[23.362124692170415,61.965783232517815],[23.362017989754978,61.966249180531378],[23.361912042256659,61.966751041506328],[23.361849409559159,61.967108344558383],[23.361977442593297,61.967759320401704],[23.361964914629766,61.968029157957176],[23.361853760768131,61.968281427378521],[23.361700639560578,61.968571455794383],[23.361627204776635,61.968806810903949],[23.361646346016428,61.969096060659766],[23.361554994392385,61.969394694424253],[23.361373675109199,61.969766898408217],[23.361235434459697,61.969915733419505],[23.361005039244674,61.970288527723717],[23.36075255183691,61.970671827668667],[23.36064674413981,61.970847418955223],[23.359072773595976,61.970341350019254],[23.358475099955765,61.970144520298639],[23.358494061070864,61.968358579111573],[23.358507481827942,61.966560619677807],[23.358523037424202,61.964770804527383],[23.358551000280034,61.961017438906659],[23.358586218681001,61.959898636829799],[23.355854148103134,61.959792283819056],[23.355854591571518,61.958798159458524],[23.351480244879689,61.958192694412986],[23.352510088038386,61.956628127764965],[23.35251020769001,61.956627286174907],[23.352510253236389,61.956627224473827],[23.352691694008485,61.955322779169208],[23.355628046322011,61.934215127910512],[23.35562805973376,61.934198385846635],[23.363857502951639,61.931389913208761],[23.364014083884246,61.931336463403767],[23.364014240589444,61.931336108073893],[23.364014318942054,61.931335930408906],[23.367055549108837,61.924068626477236],[23.370456315001249,61.914104507391343],[23.370616189426592,61.913635906535383],[23.370628576112669,61.913599630377561],[23.370798147685417,61.913102590600218],[23.378036425747336,61.913458121588633],[23.378264692096472,61.912481661378322],[23.378721719544114,61.910442238494191],[23.378930981194642,61.910668155532036],[23.379317298228194,61.911061131583352],[23.379538852702407,61.911420095548841],[23.379599125010394,61.91151773175978],[23.379614058674715,61.911541948548717],[23.380008539232648,61.912144347216987],[23.380187723977446,61.912379634290957],[23.380299575185592,61.912473873517612],[23.380642566035476,61.912740807940935],[23.381024014902348,61.913073852745249],[23.381369966109116,61.913552005006409]]],[[[23.467845001791886,61.94209453710107],[23.467849077568662,61.942112245616407],[23.467846189638671,61.9421208881108],[23.467830322709816,61.942137015547544],[23.46780765127858,61.94214946376885],[23.467777604387134,61.942160365818332],[23.467743070685792,61.942167836826997],[23.467734937268347,61.942168886186245],[23.467697238533482,61.942171063981206],[23.467659119356092,61.9421714337401],[23.467628217386952,61.942172078552524],[23.467590869805171,61.942175343671622],[23.467554679316045,61.942180974881673],[23.467517403119039,61.942187746425049],[23.467482567745392,61.942195020918675],[23.467450629588136,61.942204625285896],[23.467444659455886,61.94220725779499],[23.467423601386855,61.942222083767788],[23.467411721559209,61.94223903237539],[23.467405780111072,61.942253787983027],[23.467396159342453,61.942289306104961],[23.46738592133957,61.942305748687474],[23.467367443078704,61.942321359753308],[23.467345302455133,61.942335978210821],[23.467339542682385,61.942339595608672],[23.46729631441622,61.942369129121175],[23.467271159762866,61.942382591875202],[23.467258773277518,61.942387755565839],[23.467226664703947,61.942397346526178],[23.467193746907757,61.942401893433235],[23.467155986852671,61.942400475037466],[23.467136649885319,61.942396294426644],[23.467110774767399,61.942383328259766],[23.467099092672733,61.942367392475482],[23.467103350812806,61.942349709110253],[23.467119238962006,61.942333402569439],[23.467137555502365,61.942317706508319],[23.467141958958571,61.942313775737425],[23.467156451656379,61.942297163793619],[23.467166327598274,61.942279894190882],[23.467178914707198,61.942244461195649],[23.467181375874858,61.942236706377763],[23.467197603710915,61.942183484307378],[23.467201082617258,61.942165610204313],[23.467201776893596,61.942159607277482],[23.467202279364859,61.942141737662006],[23.467200098995558,61.942123808179474],[23.467194769318898,61.942106058471296],[23.467185450725385,61.942088655698839],[23.467176582464301,61.942076925780746],[23.46715972601368,61.942060866188363],[23.467139132499184,61.942045780038868],[23.467112637613123,61.942030093117914],[23.467086449836316,61.942017029053908],[23.467057768241883,61.942005239921492],[23.467026043758558,61.941995349646177],[23.467002721436458,61.941990168105796],[23.466966560763375,61.941984657051513],[23.466930787324596,61.941978437031352],[23.466896528284799,61.941970009324066],[23.466871486288291,61.941956606190921],[23.466866293575851,61.941948394327135],[23.466879529232276,61.941931929871814],[23.466893422901187,61.941923300288316],[23.466918283381137,61.941909740194376],[23.466944469065531,61.941896762266957],[23.466972919238295,61.941884821950019],[23.466989498433879,61.941878867279115],[23.467021446751485,61.941869173421139],[23.46705599997242,61.941861532359795],[23.467069764741204,61.941859459368466],[23.467107495922654,61.941856833275018],[23.467145504000918,61.941856101377141],[23.467221618930143,61.941856257598531],[23.467237483078208,61.941856485016423],[23.467275402872474,61.941855031922074],[23.46735095347001,61.941850500772354],[23.467389015048557,61.941849141147451],[23.467427050932319,61.941849488227952],[23.467462327540229,61.941851921172336],[23.467498467428026,61.941857611287908],[23.467531590583015,61.941866459004792],[23.467560883006229,61.941881049429902],[23.467575337977344,61.941897586516326],[23.467581153698259,61.941915258817552],[23.467582961892802,61.941924201541589],[23.467585598951164,61.941942142733872],[23.467586827511848,61.941960056767954],[23.467585903138577,61.941976298041013],[23.467581959348109,61.941994070358064],[23.467574258953356,61.942011665398773],[23.467565983820798,61.942024662736252],[23.467554883298892,61.942041802089513],[23.46755124276217,61.942059591174257],[23.46755387333577,61.942064061909939],[23.467579443024626,61.942077029143789],[23.467599329580931,61.942080415041744],[23.467635869404582,61.942076050852343],[23.467660488723737,61.942069853110759],[23.467694598640954,61.942061921940599],[23.467730908338758,61.942056743064889],[23.467752091045725,61.942055848832446],[23.467789707361899,61.94205834172562],[23.467809132503906,61.942063243404313],[23.467831834012831,61.942077754504957],[23.467845001791886,61.94209453710107]]],[[[23.467873553247543,61.941648997895371],[23.467899924957138,61.94166162620634],[23.467922474060614,61.941676133386608],[23.467941373433515,61.941692344150368],[23.46795101841586,61.941709566531571],[23.467948547129971,61.941717410961424],[23.467926559385585,61.941732033422873],[23.467921620007051,61.94173532143148],[23.467893843910097,61.941768657361237],[23.467890415579621,61.941771085523264],[23.46785997374657,61.941781447264937],[23.467833104811341,61.941785161042979],[23.467795146932627,61.941785624831489],[23.467775917726883,61.941783154444828],[23.467744689446945,61.941773097344125],[23.467734379874528,61.941766901913006],[23.467720745459363,61.94175019718972],[23.467715784835697,61.941734532784203],[23.467713300907914,61.941716586538384],[23.467715220877462,61.941698663438288],[23.467720401879376,61.941687842228632],[23.467736278985409,61.941671625206396],[23.467751448309514,61.941662848553193],[23.46778295005311,61.941653053205641],[23.467808769243373,61.941648683469872],[23.467846235533607,61.941645870658959],[23.467873553247543,61.941648997895371]]]]},"properties":{"OBJECTID":47,"KohdeId":864,"LsAlueTunn":"KPU040004","Nimi":"Seitsemisen kansallispuisto","NimiRuotsi":" ","KohdeTyypp":202,"TyyppiLyhe":"KPU","TyyppiNimi":"Kansallispuisto","PaatPvm":371865600000,"PaatNimi":"Laki eräiden valtion omistamien alueiden muodostamisesta kansallispuistoiksi ja luonnonpuistoiksi","PaatURL":" ","ViimPaatPv":1679529600000,"ViimPaatNi":"Laki eräiden valtion omistamien alueiden muodostamisesta kansallispuistoiksi ja luonnonpuistoiksi annetun lain muuttamisesta","Voimaantul":1685577600000,"LakiPerust":" ","LakkautusP":253402214400000,"CDDATunnus":7498,"IUCNKatego":"II","IUCNLuokka":"Kansallispuisto","LPAlue":"Järvi-Suomi, LP","ELY":"Pirkanmaan ELY-keskus","Olotila":"Voimassa","OlotilaMuu":253402214400000,"DigPohja":"SuMaVe-konversio/ KihtiGis_ei tuottamistietoa","MuutosPvm":1759190400000,"Lisatieto":" ","Shape_STAr":46882585.363600001,"Shape_STLe":66671.499821499994,"Shape_Length":66671.499821520687,"Shape_Area":46882585.364688188}}]}