{
  "type": "FeatureCollection",
  "features": [
    {
      "type": "Feature",
      "id": "lipas:sports-sites:604017:0",
      "geometry": {
        "type": "Point",
        "coordinates": [
          23.617370703417826,
          61.9312608085474
        ]
      },
      "properties": {
        "name": "Talvisillan nuotiopaikka",
        "source_id": 604017,
        "type_code": 206,
        "province": "Tuntematon",
        "city": "980",
        "status": "active",
        "source_event_date": "2021-01-18T12:29:43.944Z",
        "services": {
          "toilet?": true,
          "free-use?": true
        },
        "park_classification": "outside-in-preview-box"
      }
    },
    {
      "type": "Feature",
      "id": "lipas:sports-sites:605263:0",
      "geometry": {
        "type": "Point",
        "coordinates": [
          23.125420832888373,
          61.87793471036855
        ]
      },
      "properties": {
        "name": "Vähä Ojajärven nuotiopaikka",
        "source_id": 605263,
        "type_code": 206,
        "province": "Tuntematon",
        "city": "143",
        "status": "active",
        "source_event_date": "2024-05-22T17:09:30.284Z",
        "services": {},
        "park_classification": "outside-in-preview-box"
      }
    },
    {
      "type": "Feature",
      "id": "lipas:sports-sites:605264:0",
      "geometry": {
        "type": "Point",
        "coordinates": [
          23.221747300216624,
          61.88351275030374
        ]
      },
      "properties": {
        "name": "Kalliolammen nuotiopaikka",
        "source_id": 605264,
        "type_code": 206,
        "province": "Tuntematon",
        "city": "143",
        "status": "active",
        "source_event_date": "2021-10-28T07:42:03.924Z",
        "services": {},
        "park_classification": "outside-in-preview-box"
      }
    },
    {
      "type": "Feature",
      "id": "lipas:sports-sites:73393:0",
      "geometry": {
        "type": "Point",
        "coordinates": [
          23.61018774606,
          61.9678711385142
        ]
      },
      "properties": {
        "name": "Riuttaskorven laavu",
        "source_id": 73393,
        "type_code": 301,
        "province": "Tuntematon",
        "city": "980",
        "status": "active",
        "source_event_date": "2021-01-18T12:38:10.685Z",
        "services": {
          "toilet?": true,
          "free-use?": true
        },
        "park_classification": "outside-in-preview-box"
      }
    },
    {
      "type": "Feature",
      "id": "lipas:sports-sites:600520:0",
      "geometry": {
        "type": "Point",
        "coordinates": [
          23.112052880425512,
          61.7701600943961
        ]
      },
      "properties": {
        "name": "Paskonnokan laavu",
        "source_id": 600520,
        "type_code": 301,
        "province": "Tuntematon",
        "city": "143",
        "status": "active",
        "source_event_date": "2026-05-08T08:23:09.320Z",
        "services": {
          "free-use?": true,
          "may-be-shown-in-excursion-map-fi?": true
        },
        "park_classification": "outside-in-preview-box"
      }
    },
    {
      "type": "Feature",
      "id": "lipas:sports-sites:601031:0",
      "geometry": {
        "type": "Point",
        "coordinates": [
          23.162055400668542,
          62.026138507847584
        ]
      },
      "properties": {
        "name": "Jääräperän laavu ja nuotiopaikka",
        "source_id": 601031,
        "type_code": 301,
        "province": "Tuntematon",
        "city": "581",
        "status": "active",
        "source_event_date": "2024-05-15T06:25:21.723Z",
        "services": {
          "free-use?": true,
          "may-be-shown-in-excursion-map-fi?": true
        },
        "park_classification": "outside-in-preview-box"
      }
    },
    {
      "type": "Feature",
      "id": "lipas:sports-sites:601032:0",
      "geometry": {
        "type": "Point",
        "coordinates": [
          23.18134677169239,
          62.0264433130187
        ]
      },
      "properties": {
        "name": "Saaresjärven laavu ja nuotiopaikka",
        "source_id": 601032,
        "type_code": 301,
        "province": "Tuntematon",
        "city": "581",
        "status": "active",
        "source_event_date": "2023-12-21T09:36:18.333Z",
        "services": {
          "may-be-shown-in-excursion-map-fi?": true
        },
        "park_classification": "outside-in-preview-box"
      }
    },
    {
      "type": "Feature",
      "id": "lipas:sports-sites:601035:0",
      "geometry": {
        "type": "Point",
        "coordinates": [
          23.059906074788685,
          62.07899881710849
        ]
      },
      "properties": {
        "name": "Metsämuseon laavu ja nuotiopaikka",
        "source_id": 601035,
        "type_code": 301,
        "province": "Tuntematon",
        "city": "581",
        "status": "active",
        "source_event_date": "2026-06-12T12:08:37.694Z",
        "services": {
          "may-be-shown-in-excursion-map-fi?": true
        },
        "park_classification": "outside-in-preview-box"
      }
    },
    {
      "type": "Feature",
      "id": "lipas:sports-sites:604014:0",
      "geometry": {
        "type": "Point",
        "coordinates": [
          23.66323208829362,
          61.862304954264694
        ]
      },
      "properties": {
        "name": "Löyttyjärven kota",
        "source_id": 604014,
        "type_code": 301,
        "province": "Tuntematon",
        "city": "980",
        "status": "active",
        "source_event_date": "2024-05-15T17:04:59.964Z",
        "services": {
          "may-be-shown-in-excursion-map-fi?": true
        },
        "park_classification": "outside-in-preview-box"
      }
    },
    {
      "type": "Feature",
      "id": "lipas:sports-sites:604015:0",
      "geometry": {
        "type": "Point",
        "coordinates": [
          23.645420448024147,
          61.90384192374326
        ]
      },
      "properties": {
        "name": "Koukerinvuoren laavu",
        "source_id": 604015,
        "type_code": 301,
        "province": "Tuntematon",
        "city": "980",
        "status": "active",
        "source_event_date": "2024-05-15T17:30:43.303Z",
        "services": {
          "may-be-shown-in-excursion-map-fi?": true
        },
        "park_classification": "outside-in-preview-box"
      }
    },
    {
      "type": "Feature",
      "id": "lipas:sports-sites:604016:0",
      "geometry": {
        "type": "Point",
        "coordinates": [
          23.540792518990884,
          61.92912474523942
        ]
      },
      "properties": {
        "name": "Rysäslammenlaavu",
        "source_id": 604016,
        "type_code": 301,
        "province": "Tuntematon",
        "city": "980",
        "status": "active",
        "source_event_date": "2024-05-15T17:56:35.217Z",
        "services": {
          "may-be-shown-in-excursion-map-fi?": true
        },
        "park_classification": "outside-in-preview-box"
      }
    },
    {
      "type": "Feature",
      "id": "lipas:sports-sites:604018:0",
      "geometry": {
        "type": "Point",
        "coordinates": [
          23.71569328084104,
          61.94891521510559
        ]
      },
      "properties": {
        "name": "Pyydysjärven laavu",
        "source_id": 604018,
        "type_code": 301,
        "province": "Tuntematon",
        "city": "980",
        "status": "active",
        "source_event_date": "2024-05-14T16:16:04.189Z",
        "services": {
          "toilet?": true,
          "free-use?": true,
          "may-be-shown-in-excursion-map-fi?": true
        },
        "park_classification": "outside-in-preview-box"
      }
    },
    {
      "type": "Feature",
      "id": "lipas:sports-sites:604019:0",
      "geometry": {
        "type": "Point",
        "coordinates": [
          23.772053294463344,
          61.98146349248932
        ]
      },
      "properties": {
        "name": "Karhukosken laavu",
        "source_id": 604019,
        "type_code": 301,
        "province": "Tuntematon",
        "city": "980",
        "status": "active",
        "source_event_date": "2024-05-14T16:12:36.114Z",
        "services": {
          "toilet?": true,
          "free-use?": true,
          "may-be-shown-in-excursion-map-fi?": true
        },
        "park_classification": "outside-in-preview-box"
      }
    },
    {
      "type": "Feature",
      "id": "lipas:sports-sites:604020:0",
      "geometry": {
        "type": "Point",
        "coordinates": [
          23.787676517320836,
          61.96384965379252
        ]
      },
      "properties": {
        "name": "Iso-Kalliojärven laavu",
        "source_id": 604020,
        "type_code": 301,
        "province": "Tuntematon",
        "city": "980",
        "status": "active",
        "source_event_date": "2024-05-14T16:17:21.871Z",
        "services": {
          "toilet?": true,
          "free-use?": true,
          "may-be-shown-in-excursion-map-fi?": true
        },
        "park_classification": "outside-in-preview-box"
      }
    },
    {
      "type": "Feature",
      "id": "lipas:sports-sites:604021:0",
      "geometry": {
        "type": "Point",
        "coordinates": [
          23.77542635019508,
          61.89804075474544
        ]
      },
      "properties": {
        "name": "Ruukinkosken laavu",
        "source_id": 604021,
        "type_code": 301,
        "province": "Tuntematon",
        "city": "980",
        "status": "active",
        "source_event_date": "2020-09-22T05:57:11.791Z",
        "services": {
          "may-be-shown-in-excursion-map-fi?": true
        },
        "park_classification": "outside-in-preview-box"
      }
    },
    {
      "type": "Feature",
      "id": "lipas:sports-sites:604023:0",
      "geometry": {
        "type": "Point",
        "coordinates": [
          23.32176167306273,
          61.74340630213904
        ]
      },
      "properties": {
        "name": "Keihäänmaan laavu",
        "source_id": 604023,
        "type_code": 301,
        "province": "Tuntematon",
        "city": "980",
        "status": "active",
        "source_event_date": "2020-08-30T05:17:12.482Z",
        "services": {},
        "park_classification": "outside-in-preview-box"
      }
    },
    {
      "type": "Feature",
      "id": "lipas:sports-sites:604024:0",
      "geometry": {
        "type": "Point",
        "coordinates": [
          23.34042753311323,
          61.77990459741392
        ]
      },
      "properties": {
        "name": "Väinänvuorenlaavu",
        "source_id": 604024,
        "type_code": 301,
        "province": "Tuntematon",
        "city": "980",
        "status": "active",
        "source_event_date": "2020-09-16T18:33:12.214Z",
        "services": {
          "may-be-shown-in-excursion-map-fi?": true
        },
        "park_classification": "outside-in-preview-box"
      }
    },
    {
      "type": "Feature",
      "id": "lipas:sports-sites:605262:0",
      "geometry": {
        "type": "Point",
        "coordinates": [
          23.341403464637043,
          61.80529523914694
        ]
      },
      "properties": {
        "name": "Vahonkosken laavu",
        "source_id": 605262,
        "type_code": 301,
        "province": "Tuntematon",
        "city": "143",
        "status": "active",
        "source_event_date": "2021-10-28T07:45:46.553Z",
        "services": {},
        "park_classification": "outside-in-preview-box"
      }
    },
    {
      "type": "Feature",
      "id": "lipas:sports-sites:605265:0",
      "geometry": {
        "type": "Point",
        "coordinates": [
          23.323769388940555,
          61.87988758012655
        ]
      },
      "properties": {
        "name": "Latoveden laavu",
        "source_id": 605265,
        "type_code": 301,
        "province": "Tuntematon",
        "city": "143",
        "status": "active",
        "source_event_date": "2024-04-17T07:50:09.545Z",
        "services": {},
        "park_classification": "outside-in-preview-box"
      }
    },
    {
      "type": "Feature",
      "id": "lipas:sports-sites:606612:0",
      "geometry": {
        "type": "Point",
        "coordinates": [
          23.218992449168493,
          62.03973286398781
        ]
      },
      "properties": {
        "name": "Lylynevan laavu ja nuotiopaikka",
        "source_id": 606612,
        "type_code": 301,
        "province": "Tuntematon",
        "city": "581",
        "status": "active",
        "source_event_date": "2021-11-26T08:21:50.567Z",
        "services": {
          "free-use?": true,
          "may-be-shown-in-excursion-map-fi?": true
        },
        "park_classification": "outside-in-preview-box"
      }
    },
    {
      "type": "Feature",
      "id": "lipas:sports-sites:611206:0",
      "geometry": {
        "type": "Point",
        "coordinates": [
          23.804840955804007,
          61.87237363298935
        ]
      },
      "properties": {
        "name": "Romusaaren nokan kota",
        "source_id": 611206,
        "type_code": 301,
        "province": "Tuntematon",
        "city": "980",
        "status": "active",
        "source_event_date": "2023-09-29T09:15:04.994Z",
        "services": {
          "toilet?": true,
          "free-use?": true,
          "may-be-shown-in-excursion-map-fi?": true
        },
        "park_classification": "outside-in-preview-box"
      }
    },
    {
      "type": "Feature",
      "id": "lipas:sports-sites:620321:0",
      "geometry": {
        "type": "Point",
        "coordinates": [
          23.276053165795204,
          61.7730169714732
        ]
      },
      "properties": {
        "name": "Huopion laavu",
        "source_id": 620321,
        "type_code": 301,
        "province": "Tuntematon",
        "city": "143",
        "status": "active",
        "source_event_date": "2026-06-04T11:07:26.459Z",
        "services": {
          "free-use?": true,
          "may-be-shown-in-excursion-map-fi?": true
        },
        "park_classification": "outside-in-preview-box"
      }
    }
  ]
}