{
  "type": "FeatureCollection",
  "features": [
    {
      "type": "Feature",
      "id": "osm:node:469979736",
      "geometry": {
        "type": "Point",
        "coordinates": [
          23.8283208,
          62.0545043
        ]
      },
      "properties": {
        "sourceUrl": "https://www.openstreetmap.org/node/469979736",
        "name": "Helvetinkolu",
        "category": "rest",
        "classification": "inside",
        "positionKind": "osm-node",
        "osmModifiedAt": "2014-08-02T20:37:46Z",
        "osmVersion": 2,
        "tags": {
          "amenity": "shelter",
          "fireplace": "yes",
          "name": "Helvetinkolu"
        }
      }
    },
    {
      "type": "Feature",
      "id": "osm:node:534951516",
      "geometry": {
        "type": "Point",
        "coordinates": [
          23.7720536,
          61.9814353
        ]
      },
      "properties": {
        "sourceUrl": "https://www.openstreetmap.org/node/534951516",
        "name": "Karhunkosken laavu",
        "category": "rest",
        "classification": "outside",
        "positionKind": "osm-node",
        "osmModifiedAt": "2021-04-21T19:15:49Z",
        "osmVersion": 7,
        "tags": {
          "amenity": "shelter",
          "leisure": "firepit",
          "name": "Karhunkosken laavu",
          "shelter_type": "lean_to",
          "source_ref": "http://www.gps-waypoints.net/gps/"
        }
      }
    },
    {
      "type": "Feature",
      "id": "osm:node:534951519",
      "geometry": {
        "type": "Point",
        "coordinates": [
          23.8769617,
          61.9830296
        ]
      },
      "properties": {
        "sourceUrl": "https://www.openstreetmap.org/node/534951519",
        "name": "Valkoinen",
        "category": "rest",
        "classification": "inside",
        "positionKind": "osm-node",
        "osmModifiedAt": "2022-09-29T20:25:17Z",
        "osmVersion": 8,
        "tags": {
          "description": "Tulentekopaikka Valkoinen, Kävelyä n 300-400m perillä lampi/järvi. Ei laavua.",
          "leisure": "firepit",
          "name": "Valkoinen",
          "source_ref": "http://www.gps-waypoints.net/gps/"
        }
      }
    },
    {
      "type": "Feature",
      "id": "osm:node:534951548",
      "geometry": {
        "type": "Point",
        "coordinates": [
          23.8783378,
          61.9702032
        ]
      },
      "properties": {
        "sourceUrl": "https://www.openstreetmap.org/node/534951548",
        "name": "Kivikieringan laavu",
        "category": "rest",
        "classification": "outside",
        "positionKind": "osm-node",
        "osmModifiedAt": "2019-07-01T15:52:27Z",
        "osmVersion": 5,
        "tags": {
          "amenity": "shelter",
          "description": "Kivikieringan laavu voi yöpyä perille pääsee mp:lla ja autolla -Riekkola",
          "name": "Kivikieringan laavu",
          "shelter_type": "lean_to",
          "source_ref": "http://www.gps-waypoints.net/gps/"
        }
      }
    },
    {
      "type": "Feature",
      "id": "osm:node:844947658",
      "geometry": {
        "type": "Point",
        "coordinates": [
          23.7817329,
          62.0228186
        ]
      },
      "properties": {
        "sourceUrl": "https://www.openstreetmap.org/node/844947658",
        "name": null,
        "category": "rest",
        "classification": "inside",
        "positionKind": "osm-node",
        "osmModifiedAt": "2015-04-22T21:52:08Z",
        "osmVersion": 3,
        "tags": {
          "leisure": "firepit",
          "tourism": "camp_site"
        }
      }
    },
    {
      "type": "Feature",
      "id": "osm:node:944464776",
      "geometry": {
        "type": "Point",
        "coordinates": [
          23.8018843,
          62.0297988
        ]
      },
      "properties": {
        "sourceUrl": "https://www.openstreetmap.org/node/944464776",
        "name": null,
        "category": "rest",
        "classification": "inside",
        "positionKind": "osm-node",
        "osmModifiedAt": "2021-08-10T17:07:33Z",
        "osmVersion": 5,
        "tags": {
          "amenity": "bbq",
          "check_date": "2021-07-19",
          "covered": "yes",
          "fuel": "wood"
        }
      }
    },
    {
      "type": "Feature",
      "id": "osm:node:1725381017",
      "geometry": {
        "type": "Point",
        "coordinates": [
          23.8833327,
          62.0410885
        ]
      },
      "properties": {
        "sourceUrl": "https://www.openstreetmap.org/node/1725381017",
        "name": null,
        "category": "rest",
        "classification": "inside",
        "positionKind": "osm-node",
        "osmModifiedAt": "2015-07-11T18:05:10Z",
        "osmVersion": 3,
        "tags": {
          "covered": "no",
          "leisure": "firepit"
        }
      }
    },
    {
      "type": "Feature",
      "id": "osm:node:2312895980",
      "geometry": {
        "type": "Point",
        "coordinates": [
          23.8934952,
          61.9923698
        ]
      },
      "properties": {
        "sourceUrl": "https://www.openstreetmap.org/node/2312895980",
        "name": "Ruokejärvet",
        "category": "rest",
        "classification": "inside",
        "positionKind": "osm-node",
        "osmModifiedAt": "2015-08-27T09:00:59Z",
        "osmVersion": 2,
        "tags": {
          "backcountry": "yes",
          "leisure": "firepit",
          "name": "Ruokejärvet",
          "tourism": "camp_site"
        }
      }
    },
    {
      "type": "Feature",
      "id": "osm:node:2955576689",
      "geometry": {
        "type": "Point",
        "coordinates": [
          23.8977573,
          62.0367952
        ]
      },
      "properties": {
        "sourceUrl": "https://www.openstreetmap.org/node/2955576689",
        "name": null,
        "category": "rest",
        "classification": "inside",
        "positionKind": "osm-node",
        "osmModifiedAt": "2014-07-09T10:04:42Z",
        "osmVersion": 1,
        "tags": {
          "amenity": "shelter",
          "description:en": "Cooking shelter",
          "shelter_type": "weather_shelter"
        }
      }
    },
    {
      "type": "Feature",
      "id": "osm:node:3479991714",
      "geometry": {
        "type": "Point",
        "coordinates": [
          23.7718297,
          62.0202899
        ]
      },
      "properties": {
        "sourceUrl": "https://www.openstreetmap.org/node/3479991714",
        "name": null,
        "category": "rest",
        "classification": "outside",
        "positionKind": "osm-node",
        "osmModifiedAt": "2015-04-26T21:52:19Z",
        "osmVersion": 1,
        "tags": {
          "leisure": "firepit"
        }
      }
    },
    {
      "type": "Feature",
      "id": "osm:node:3646349387",
      "geometry": {
        "type": "Point",
        "coordinates": [
          23.8026295,
          62.0390687
        ]
      },
      "properties": {
        "sourceUrl": "https://www.openstreetmap.org/node/3646349387",
        "name": null,
        "category": "table",
        "classification": "inside",
        "positionKind": "osm-node",
        "osmModifiedAt": "2021-07-19T08:36:32Z",
        "osmVersion": 2,
        "tags": {
          "check_date": "2021-07-19",
          "leisure": "picnic_table"
        }
      }
    },
    {
      "type": "Feature",
      "id": "osm:node:3646381763",
      "geometry": {
        "type": "Point",
        "coordinates": [
          23.8030546,
          62.029588
        ]
      },
      "properties": {
        "sourceUrl": "https://www.openstreetmap.org/node/3646381763",
        "name": null,
        "category": "water",
        "classification": "inside",
        "positionKind": "osm-node",
        "osmModifiedAt": "2024-07-15T05:12:47Z",
        "osmVersion": 2,
        "tags": {
          "amenity": "drinking_water",
          "drinking_water": "yes",
          "man_made": "water_well"
        }
      }
    },
    {
      "type": "Feature",
      "id": "osm:node:3646381764",
      "geometry": {
        "type": "Point",
        "coordinates": [
          23.8014185,
          62.0299754
        ]
      },
      "properties": {
        "sourceUrl": "https://www.openstreetmap.org/node/3646381764",
        "name": null,
        "category": "rest",
        "classification": "inside",
        "positionKind": "osm-node",
        "osmModifiedAt": "2021-07-19T13:15:56Z",
        "osmVersion": 3,
        "tags": {
          "check_date": "2021-07-19",
          "leisure": "firepit"
        }
      }
    },
    {
      "type": "Feature",
      "id": "osm:node:3646386862",
      "geometry": {
        "type": "Point",
        "coordinates": [
          23.8819492,
          62.0413505
        ]
      },
      "properties": {
        "sourceUrl": "https://www.openstreetmap.org/node/3646386862",
        "name": null,
        "category": "rest",
        "classification": "inside",
        "positionKind": "osm-node",
        "osmModifiedAt": "2015-07-11T18:05:10Z",
        "osmVersion": 2,
        "tags": {
          "covered": "no",
          "leisure": "firepit"
        }
      }
    },
    {
      "type": "Feature",
      "id": "osm:node:3646555257",
      "geometry": {
        "type": "Point",
        "coordinates": [
          23.8214062,
          62.0436951
        ]
      },
      "properties": {
        "sourceUrl": "https://www.openstreetmap.org/node/3646555257",
        "name": null,
        "category": "rest",
        "classification": "inside",
        "positionKind": "osm-node",
        "osmModifiedAt": "2023-05-30T10:20:29Z",
        "osmVersion": 5,
        "tags": {
          "leisure": "firepit"
        }
      }
    },
    {
      "type": "Feature",
      "id": "osm:node:3676553678",
      "geometry": {
        "type": "Point",
        "coordinates": [
          23.8280811,
          62.0544621
        ]
      },
      "properties": {
        "sourceUrl": "https://www.openstreetmap.org/node/3676553678",
        "name": null,
        "category": "rest",
        "classification": "inside",
        "positionKind": "osm-node",
        "osmModifiedAt": "2021-07-19T11:00:23Z",
        "osmVersion": 2,
        "tags": {
          "check_date": "2021-07-19",
          "leisure": "firepit"
        }
      }
    },
    {
      "type": "Feature",
      "id": "osm:node:3716617635",
      "geometry": {
        "type": "Point",
        "coordinates": [
          23.81633,
          61.9717437
        ]
      },
      "properties": {
        "sourceUrl": "https://www.openstreetmap.org/node/3716617635",
        "name": "Leppäjärven laavu",
        "category": "rest",
        "classification": "outside",
        "positionKind": "osm-node",
        "osmModifiedAt": "2015-08-27T09:17:59Z",
        "osmVersion": 1,
        "tags": {
          "amenity": "shelter",
          "fireplace": "yes",
          "name": "Leppäjärven laavu",
          "shelter_type": "lean_to"
        }
      }
    },
    {
      "type": "Feature",
      "id": "osm:node:5940938011",
      "geometry": {
        "type": "Point",
        "coordinates": [
          23.8463563,
          62.0549361
        ]
      },
      "properties": {
        "sourceUrl": "https://www.openstreetmap.org/node/5940938011",
        "name": null,
        "category": "rest",
        "classification": "inside",
        "positionKind": "osm-node",
        "osmModifiedAt": "2018-09-30T16:50:37Z",
        "osmVersion": 1,
        "tags": {
          "tourism": "picnic_site"
        }
      }
    },
    {
      "type": "Feature",
      "id": "osm:node:8996608059",
      "geometry": {
        "type": "Point",
        "coordinates": [
          23.8014705,
          62.0304233
        ]
      },
      "properties": {
        "sourceUrl": "https://www.openstreetmap.org/node/8996608059",
        "name": null,
        "category": "rest",
        "classification": "inside",
        "positionKind": "osm-node",
        "osmModifiedAt": "2021-08-10T17:07:33Z",
        "osmVersion": 1,
        "tags": {
          "leisure": "firepit"
        }
      }
    },
    {
      "type": "Feature",
      "id": "osm:node:8996666767",
      "geometry": {
        "type": "Point",
        "coordinates": [
          23.8212078,
          62.0437183
        ]
      },
      "properties": {
        "sourceUrl": "https://www.openstreetmap.org/node/8996666767",
        "name": null,
        "category": "rest",
        "classification": "inside",
        "positionKind": "osm-node",
        "osmModifiedAt": "2021-08-10T17:42:14Z",
        "osmVersion": 1,
        "tags": {
          "leisure": "firepit"
        }
      }
    },
    {
      "type": "Feature",
      "id": "osm:node:12068033444",
      "geometry": {
        "type": "Point",
        "coordinates": [
          23.863025,
          62.0573269
        ]
      },
      "properties": {
        "sourceUrl": "https://www.openstreetmap.org/node/12068033444",
        "name": null,
        "category": "water",
        "classification": "outside",
        "positionKind": "osm-node",
        "osmModifiedAt": "2024-07-22T12:26:05Z",
        "osmVersion": 1,
        "tags": {
          "amenity": "drinking_water"
        }
      }
    },
    {
      "type": "Feature",
      "id": "osm:way:295560836",
      "geometry": {
        "type": "Point",
        "coordinates": [
          23.8284774,
          62.0543936
        ]
      },
      "properties": {
        "sourceUrl": "https://www.openstreetmap.org/way/295560836",
        "name": "Päivätupa",
        "category": "rest",
        "classification": "inside",
        "positionKind": "bounding-box-center-review-required",
        "osmModifiedAt": "2023-05-02T20:25:33Z",
        "osmVersion": 4,
        "tags": {
          "building": "hut",
          "name": "Päivätupa",
          "name:fi": "Päivätupa",
          "phone": "+358 205 64 5270",
          "tourism": "wilderness_hut",
          "url": "http://www.luontoon.fi/helvetinkolupaivatupa"
        }
      }
    },
    {
      "type": "Feature",
      "id": "osm:way:360036787",
      "geometry": {
        "type": "Point",
        "coordinates": [
          23.8023186,
          62.0301989
        ]
      },
      "properties": {
        "sourceUrl": "https://www.openstreetmap.org/way/360036787",
        "name": "Haukanhieta",
        "category": "camp",
        "classification": "inside",
        "positionKind": "bounding-box-center-review-required",
        "osmModifiedAt": "2025-02-14T21:15:30Z",
        "osmVersion": 5,
        "tags": {
          "drinking_water": "yes",
          "name": "Haukanhieta",
          "toilets": "yes",
          "tourism": "camp_site"
        }
      }
    },
    {
      "type": "Feature",
      "id": "osm:way:360052704",
      "geometry": {
        "type": "Point",
        "coordinates": [
          23.8212132,
          62.0439428
        ]
      },
      "properties": {
        "sourceUrl": "https://www.openstreetmap.org/way/360052704",
        "name": "Iso Ruokejärvi",
        "category": "camp",
        "classification": "inside",
        "positionKind": "bounding-box-center-review-required",
        "osmModifiedAt": "2025-02-15T13:46:29Z",
        "osmVersion": 3,
        "tags": {
          "backcountry": "yes",
          "drinking_water": "no",
          "fireplace": "yes",
          "name": "Iso Ruokejärvi",
          "name:fi": "Iso Ruokejärvi",
          "toilets": "yes",
          "tourism": "camp_site"
        }
      }
    },
    {
      "type": "Feature",
      "id": "osm:way:360053074",
      "geometry": {
        "type": "Point",
        "coordinates": [
          23.8827773,
          62.0411776
        ]
      },
      "properties": {
        "sourceUrl": "https://www.openstreetmap.org/way/360053074",
        "name": "Luomajärvi",
        "category": "camp",
        "classification": "outside",
        "positionKind": "bounding-box-center-review-required",
        "osmModifiedAt": "2025-02-16T18:37:05Z",
        "osmVersion": 3,
        "tags": {
          "drinking_water": "no",
          "name": "Luomajärvi",
          "toilets": "yes",
          "tourism": "camp_site"
        }
      }
    },
    {
      "type": "Feature",
      "id": "osm:way:972046272",
      "geometry": {
        "type": "Point",
        "coordinates": [
          23.8018744,
          62.0297966
        ]
      },
      "properties": {
        "sourceUrl": "https://www.openstreetmap.org/way/972046272",
        "name": null,
        "category": "rest",
        "classification": "inside",
        "positionKind": "bounding-box-center-review-required",
        "osmModifiedAt": "2024-07-15T05:12:47Z",
        "osmVersion": 2,
        "tags": {
          "building": "yes",
          "fireplace": "yes",
          "shelter_type": "picnic_shelter",
          "tourism": "picnic_site"
        }
      }
    }
  ]
}