{
  "type": "FeatureCollection",
  "attribution": "© OpenStreetMap contributors",
  "license": "https://opendatacommons.org/licenses/odbl/1-0/",
  "features": [
    {
      "type": "Feature",
      "id": "osm:node:4176627279",
      "geometry": {
        "type": "Point",
        "coordinates": [
          25.9342895,
          68.4558865
        ]
      },
      "properties": {
        "sourceUrl": "https://www.openstreetmap.org/node/4176627279",
        "name": "Pajuoja tulipaikka",
        "category": "rest",
        "classification": "inside",
        "positionKind": "osm-node",
        "osmModifiedAt": "2016-06-26T11:42:22Z",
        "osmVersion": 2,
        "tags": {
          "leisure": "firepit",
          "name": "Pajuoja tulipaikka",
          "tourism": "picnic_site"
        }
      }
    },
    {
      "type": "Feature",
      "id": "osm:node:4181473143",
      "geometry": {
        "type": "Point",
        "coordinates": [
          25.9425217,
          68.6741807
        ]
      },
      "properties": {
        "sourceUrl": "https://www.openstreetmap.org/node/4181473143",
        "name": "Pitkäniemi",
        "category": "rest",
        "classification": "inside",
        "positionKind": "osm-node",
        "osmModifiedAt": "2020-06-25T19:34:01Z",
        "osmVersion": 3,
        "tags": {
          "access": "yes",
          "leisure": "firepit",
          "name": "Pitkäniemi",
          "seasonal": "no",
          "tourism": "picnic_site"
        }
      }
    },
    {
      "type": "Feature",
      "id": "osm:node:4181554783",
      "geometry": {
        "type": "Point",
        "coordinates": [
          25.8316723,
          68.6510477
        ]
      },
      "properties": {
        "sourceUrl": "https://www.openstreetmap.org/node/4181554783",
        "name": "Kapsuoja",
        "category": "rest",
        "classification": "inside",
        "positionKind": "osm-node",
        "osmModifiedAt": "2016-05-12T16:43:02Z",
        "osmVersion": 1,
        "tags": {
          "leisure": "firepit",
          "name": "Kapsuoja",
          "tourism": "picnic_site"
        }
      }
    }
  ]
}